{"type": "FeatureCollection", "features": [ {"type": "Feature", "properties": {"norad_id": 44476, "name": "INTELSAT 39 (IS-39)", "group": "intelsat", "lat": -0.02471545666888165, "lon": -45.16256810701061, "alt_km": 35791.143885485326, "timestamp": "2025-12-26T10:30:49.927528+00:00", "meta": {"OBJECT_NAME": "INTELSAT 39 (IS-39)", "OBJECT_ID": "2019-049B", "EPOCH": "2025-12-26T00:53:38.609088", "MEAN_MOTION": 1.00269924, "ECCENTRICITY": 0.0001184, "INCLINATION": 0.0147, "RA_OF_ASC_NODE": 357.7695, "ARG_OF_PERICENTER": 160.9014, "MEAN_ANOMALY": 11.4786, "EPHEMERIS_TYPE": 0, "CLASSIFICATION_TYPE": "U", "NORAD_CAT_ID": 44476, "ELEMENT_SET_NO": 999, "REV_AT_EPOCH": 2339, "BSTAR": 0, "MEAN_MOTION_DOT": 5.5e-07, "MEAN_MOTION_DDOT": 0}, "tle": {"line1": "1 44476U 19049B   25360.03725242  .00000055  00000+0  00000+0 0  9997", "line2": "2 44476   0.0147 357.7695 0001184 160.9014  11.4786  1.00269924 23393"}}, "geometry": {"type": "Point", "coordinates": [-45.16256810701061, -0.02471545666888165]}}, {"type": "Feature", "properties": {"norad_id": 46114, "name": "GALAXY 30 (G-30)", "group": "intelsat", "lat": 0.02702581834152119, "lon": 127.86526676368985, "alt_km": 35794.00273324178, "timestamp": "2025-12-26T10:30:49.927539+00:00", "meta": {"OBJECT_NAME": "GALAXY 30 (G-30)", "OBJECT_ID": "2020-056C", "EPOCH": "2025-12-26T04:39:38.472192", "MEAN_MOTION": 1.00271277, "ECCENTRICITY": 0.0002215, "INCLINATION": 0.0193, "RA_OF_ASC_NODE": 347.0172, "ARG_OF_PERICENTER": 287.0736, "MEAN_ANOMALY": 125.7581, "EPHEMERIS_TYPE": 0, "CLASSIFICATION_TYPE": "U", "NORAD_CAT_ID": 46114, "ELEMENT_SET_NO": 999, "REV_AT_EPOCH": 1955, "BSTAR": 0, "MEAN_MOTION_DOT": 5.9e-07, "MEAN_MOTION_DDOT": 0}, "tle": {"line1": "1 46114U 20056C   25360.19419528  .00000059  00000+0  00000+0 0  9996", "line2": "2 46114   0.0193 347.0172 0002215 287.0736 125.7581  1.00271277 19554"}}, "geometry": {"type": "Point", "coordinates": [127.86526676368985, 0.02702581834152119]}}, {"type": "Feature", "properties": {"norad_id": 54026, "name": "GALAXY 33 (G-33)", "group": "intelsat", "lat": 0.013585498453149315, "lon": 119.88663747144643, "alt_km": 35791.51768484929, "timestamp": "2025-12-26T10:30:49.927567+00:00", "meta": {"OBJECT_NAME": "GALAXY 33 (G-33)", "OBJECT_ID": "2022-128A", "EPOCH": "2025-12-24T04:31:51.326400", "MEAN_MOTION": 1.00272122, "ECCENTRICITY": 0.0001643, "INCLINATION": 0.0126, "RA_OF_ASC_NODE": 315.9231, "ARG_OF_PERICENTER": 309.5058, "MEAN_ANOMALY": 122.5078, "EPHEMERIS_TYPE": 0, "CLASSIFICATION_TYPE": "U", "NORAD_CAT_ID": 54026, "ELEMENT_SET_NO": 999, "REV_AT_EPOCH": 1198, "BSTAR": 0, "MEAN_MOTION_DOT": 1e-06, "MEAN_MOTION_DDOT": 0}, "tle": {"line1": "1 54026U 22128A   25358.18878850  .00000100  00000+0  00000+0 0  9999", "line2": "2 54026   0.0126 315.9231 0001643 309.5058 122.5078  1.00272122 11987"}}, "geometry": {"type": "Point", "coordinates": [119.88663747144643, 0.013585498453149315]}}, {"type": "Feature", "properties": {"norad_id": 54027, "name": "GALAXY 34 (G-34)", "group": "intelsat", "lat": 0.03854207102052125, "lon": 123.91320276837122, "alt_km": 35792.63402510642, "timestamp": "2025-12-26T10:30:49.927580+00:00", "meta": {"OBJECT_NAME": "GALAXY 34 (G-34)", "OBJECT_ID": "2022-128B", "EPOCH": "2025-12-26T01:59:13.756704", "MEAN_MOTION": 1.00270241, "ECCENTRICITY": 0.0001816, "INCLINATION": 0.0226, "RA_OF_ASC_NODE": 10.2564, "ARG_OF_PERICENTER": 256.7265, "MEAN_ANOMALY": 88.7009, "EPHEMERIS_TYPE": 0, "CLASSIFICATION_TYPE": "U", "NORAD_CAT_ID": 54027, "ELEMENT_SET_NO": 999, "REV_AT_EPOCH": 1217, "BSTAR": 0, "MEAN_MOTION_DOT": 0, "MEAN_MOTION_DDOT": 0}, "tle": {"line1": "1 54027U 22128B   25360.08279811  .00000000  00000+0  00000+0 0  9993", "line2": "2 54027   0.0226  10.2564 0001816 256.7265  88.7009  1.00270241 12177"}}, "geometry": {"type": "Point", "coordinates": [123.91320276837122, 0.03854207102052125]}}, {"type": "Feature", "properties": {"norad_id": 54243, "name": "GALAXY 31 (G-31)", "group": "intelsat", "lat": 0.01884550254878922, "lon": 131.8718257125609, "alt_km": 35792.89118220718, "timestamp": "2025-12-26T10:30:49.927592+00:00", "meta": {"OBJECT_NAME": "GALAXY 31 (G-31)", "OBJECT_ID": "2022-153A", "EPOCH": "2025-12-26T04:11:05.407296", "MEAN_MOTION": 1.00271144, "ECCENTRICITY": 0.0001759, "INCLINATION": 0.0043, "RA_OF_ASC_NODE": 1.5131, "ARG_OF_PERICENTER": 283.6063, "MEAN_ANOMALY": 111.5738, "EPHEMERIS_TYPE": 0, "CLASSIFICATION_TYPE": "U", "NORAD_CAT_ID": 54243, "ELEMENT_SET_NO": 999, "REV_AT_EPOCH": 539, "BSTAR": 0, "MEAN_MOTION_DOT": 3.5e-07, "MEAN_MOTION_DDOT": 0}, "tle": {"line1": "1 54243U 22153A   25360.17436814  .00000035  00000+0  00000+0 0  9997", "line2": "2 54243   0.0043   1.5131 0001759 283.6063 111.5738  1.00271144  5391"}}, "geometry": {"type": "Point", "coordinates": [131.8718257125609, 0.01884550254878922]}}, {"type": "Feature", "properties": {"norad_id": 54244, "name": "GALAXY 32 (G-32)", "group": "intelsat", "lat": 0.016851834435837754, "lon": 161.88001396233045, "alt_km": 35793.50734423714, "timestamp": "2025-12-26T10:30:49.927604+00:00", "meta": {"OBJECT_NAME": "GALAXY 32 (G-32)", "OBJECT_ID": "2022-153B", "EPOCH": "2025-12-24T22:56:22.028928", "MEAN_MOTION": 1.00272509, "ECCENTRICITY": 0.0001992, "INCLINATION": 0.0091, "RA_OF_ASC_NODE": 20.8495, "ARG_OF_PERICENTER": 295.2988, "MEAN_ANOMALY": 30.6679, "EPHEMERIS_TYPE": 0, "CLASSIFICATION_TYPE": "U", "NORAD_CAT_ID": 54244, "ELEMENT_SET_NO": 999, "REV_AT_EPOCH": 1139, "BSTAR": 0, "MEAN_MOTION_DOT": -1.53e-06, "MEAN_MOTION_DDOT": 0}, "tle": {"line1": "1 54244U 22153B   25358.95581052 -.00000153  00000+0  00000+0 0  9998", "line2": "2 54244   0.0091  20.8495 0001992 295.2988  30.6679  1.00272509 11394"}}, "geometry": {"type": "Point", "coordinates": [161.88001396233045, 0.016851834435837754]}}, {"type": "Feature", "properties": {"norad_id": 54741, "name": "GALAXY 35 (G-35)", "group": "intelsat", "lat": -0.0027539690814669645, "lon": 159.7649786688626, "alt_km": 35790.90670564832, "timestamp": "2025-12-26T10:30:49.927616+00:00", "meta": {"OBJECT_NAME": "GALAXY 35 (G-35)", "OBJECT_ID": "2022-170A", "EPOCH": "2025-12-26T03:44:08.901312", "MEAN_MOTION": 1.00270858, "ECCENTRICITY": 0.0002375, "INCLINATION": 0.0215, "RA_OF_ASC_NODE": 258.8287, "ARG_OF_PERICENTER": 17.8539, "MEAN_ANOMALY": 141.1655, "EPHEMERIS_TYPE": 0, "CLASSIFICATION_TYPE": "U", "NORAD_CAT_ID": 54741, "ELEMENT_SET_NO": 999, "REV_AT_EPOCH": 1115, "BSTAR": 0, "MEAN_MOTION_DOT": -1.4e-06, "MEAN_MOTION_DDOT": 0}, "tle": {"line1": "1 54741U 22170A   25360.15565858 -.00000140  00000+0  00000+0 0  9996", "line2": "2 54741   0.0215 258.8287 0002375  17.8539 141.1655  1.00270858 11153"}}, "geometry": {"type": "Point", "coordinates": [159.7649786688626, -0.0027539690814669645]}}, {"type": "Feature", "properties": {"norad_id": 54742, "name": "GALAXY 36 (G-36)", "group": "intelsat", "lat": 0.019731047703791804, "lon": 163.89297278830634, "alt_km": 35787.7576317827, "timestamp": "2025-12-26T10:30:49.927628+00:00", "meta": {"OBJECT_NAME": "GALAXY 36 (G-36)", "OBJECT_ID": "2022-170B", "EPOCH": "2025-12-26T03:28:57.984384", "MEAN_MOTION": 1.00271887, "ECCENTRICITY": 4.05e-05, "INCLINATION": 0.0194, "RA_OF_ASC_NODE": 98.5441, "ARG_OF_PERICENTER": 237.6216, "MEAN_ANOMALY": 81.9797, "EPHEMERIS_TYPE": 0, "CLASSIFICATION_TYPE": "U", "NORAD_CAT_ID": 54742, "ELEMENT_SET_NO": 999, "REV_AT_EPOCH": 1103, "BSTAR": 0, "MEAN_MOTION_DOT": -1.64e-06, "MEAN_MOTION_DDOT": 0}, "tle": {"line1": "1 54742U 22170B   25360.14511556 -.00000164  00000+0  00000+0 0  9998", "line2": "2 54742   0.0194  98.5441 0000405 237.6216  81.9797  1.00271887 11035"}}, "geometry": {"type": "Point", "coordinates": [163.89297278830634, 0.019731047703791804]}}, {"type": "Feature", "properties": {"norad_id": 57493, "name": "GALAXY 37 (G-37)", "group": "intelsat", "lat": 0.027638891051462118, "lon": 125.86512055958191, "alt_km": 35794.089346692934, "timestamp": "2025-12-26T10:30:49.927639+00:00", "meta": {"OBJECT_NAME": "GALAXY 37 (G-37)", "OBJECT_ID": "2023-112A", "EPOCH": "2025-12-26T02:09:28.040832", "MEAN_MOTION": 1.00271832, "ECCENTRICITY": 0.0002144, "INCLINATION": 0.0103, "RA_OF_ASC_NODE": 37.4642, "ARG_OF_PERICENTER": 240.8765, "MEAN_ANOMALY": 81.8584, "EPHEMERIS_TYPE": 0, "CLASSIFICATION_TYPE": "U", "NORAD_CAT_ID": 57493, "ELEMENT_SET_NO": 999, "REV_AT_EPOCH": 880, "BSTAR": 0, "MEAN_MOTION_DOT": 7e-07, "MEAN_MOTION_DDOT": 0}, "tle": {"line1": "1 57493U 23112A   25360.08990788  .00000070  00000+0  00000+0 0  9997", "line2": "2 57493   0.0103  37.4642 0002144 240.8765  81.8584  1.00271832  8807"}}, "geometry": {"type": "Point", "coordinates": [125.86512055958191, 0.027638891051462118]}}]}